{
  "type": "FeatureCollection",
  "features": [
    {
      "type": "Feature",
      "properties": {
        "norad_id": 66656,
        "name": "2025-274G",
        "group": "last-30-days",
        "lat": -68.0449081733926,
        "lon": -71.75156450199762,
        "alt_km": 589.7856845139013,
        "timestamp": "2025-12-07T05:38:08.686058+00:00",
        "meta_object_name": "2025-274G",
        "meta_object_id": "2025-274G",
        "meta_epoch": "2025-12-06T13:51:08.777088",
        "meta_mean_motion": 14.92217481,
        "meta_eccentricity": 0.00124552,
        "meta_inclination": 97.7391,
        "meta_ra_of_asc_node": 267.8866,
        "meta_arg_of_pericenter": 280.6757,
        "meta_mean_anomaly": 79.3059,
        "meta_ephemeris_type": 0,
        "meta_classification_type": "U",
        "meta_norad_cat_id": 66656,
        "meta_element_set_no": 999,
        "meta_rev_at_epoch": 148,
        "meta_bstar": 0.00049254934,
        "meta_mean_motion_dot": 4.972e-05,
        "meta_mean_motion_ddot": 0,
        "tle_line1": "1 66656U 25274G   25340.57718492  .00004972  00000+0  49255-3 0  9995",
        "tle_line2": "2 66656  97.7391 267.8866 0012455 280.6757  79.3059 14.92217481  1487"
      },
      "geometry": {
        "type": "Point",
        "coordinates": [
          -71.75156450199762,
          -68.0449081733926
        ]
      }
    },
    {
      "type": "Feature",
      "properties": {
        "norad_id": 66657,
        "name": "SPIRONE",
        "group": "last-30-days",
        "lat": -61.654711399511505,
        "lon": -76.86372673013699,
        "alt_km": 589.9805615135019,
        "timestamp": "2025-12-07T05:38:08.686068+00:00",
        "meta_object_name": "SPIRONE",
        "meta_object_id": "2025-274H",
        "meta_epoch": "2025-12-06T12:12:53.945280",
        "meta_mean_motion": 14.92396474,
        "meta_eccentricity": 0.00109747,
        "meta_inclination": 97.7389,
        "meta_ra_of_asc_node": 267.8223,
        "meta_arg_of_pericenter": 300.015,
        "meta_mean_anomaly": 59.998,
        "meta_ephemeris_type": 0,
        "meta_classification_type": "U",
        "meta_norad_cat_id": 66657,
        "meta_element_set_no": 999,
        "meta_rev_at_epoch": 147,
        "meta_bstar": 0.0004858557,
        "meta_mean_motion_dot": 4.924e-05,
        "meta_mean_motion_ddot": 0,
        "tle_line1": "1 66657U 25274H   25340.50895770  .00004924  00000+0  48586-3 0  9997",
        "tle_line2": "2 66657  97.7389 267.8223 0010974 300.0150  59.9980 14.92396474  1476"
      },
      "geometry": {
        "type": "Point",
        "coordinates": [
          -76.86372673013699,
          -61.654711399511505
        ]
      }
    },
    {
      "type": "Feature",
      "properties": {
        "norad_id": 66658,
        "name": "2025-274J",
        "group": "last-30-days",
        "lat": -55.23714586404161,
        "lon": -80.16244191203224,
        "alt_km": 588.9260855297553,
        "timestamp": "2025-12-07T05:38:08.686079+00:00",
        "meta_object_name": "2025-274J",
        "meta_object_id": "2025-274J",
        "meta_epoch": "2025-12-06T12:11:14.224128",
        "meta_mean_motion": 14.92570037,
        "meta_eccentricity": 0.00115574,
        "meta_inclination": 97.7391,
        "meta_ra_of_asc_node": 267.8234,
        "meta_arg_of_pericenter": 302.9889,
        "meta_mean_anomaly": 57.0218,
        "meta_ephemeris_type": 0,
        "meta_classification_type": "U",
        "meta_norad_cat_id": 66658,
        "meta_element_set_no": 999,
        "meta_rev_at_epoch": 147,
        "meta_bstar": 0.00047136021,
        "meta_mean_motion_dot": 4.797e-05,
        "meta_mean_motion_ddot": 0,
        "tle_line1": "1 66658U 25274J   25340.50780352  .00004797  00000+0  47136-3 0  9995",
        "tle_line2": "2 66658  97.7391 267.8234 0011557 302.9889  57.0218 14.92570037  1472"
      },
      "geometry": {
        "type": "Point",
        "coordinates": [
          -80.16244191203224,
          -55.23714586404161
        ]
      }
    },
    {
      "type": "Feature",
      "properties": {
        "norad_id": 66659,
        "name": "JACK K",
        "group": "last-30-days",
        "lat": -48.355166936853315,
        "lon": -82.66152798780419,
        "alt_km": 587.7535347255862,
        "timestamp": "2025-12-07T05:38:08.686089+00:00",
        "meta_object_name": "JACK K",
        "meta_object_id": "2025-274K",
        "meta_epoch": "2025-12-06T12:09:28.530144",
        "meta_mean_motion": 14.92755789,
        "meta_eccentricity": 0.0012286,
        "meta_inclination": 97.7393,
        "meta_ra_of_asc_node": 267.8254,
        "meta_arg_of_pericenter": 304.1059,
        "meta_mean_anomaly": 55.8994,
        "meta_ephemeris_type": 0,
        "meta_classification_type": "U",
        "meta_norad_cat_id": 66659,
        "meta_element_set_no": 999,
        "meta_rev_at_epoch": 147,
        "meta_bstar": 0.00046618459,
        "meta_mean_motion_dot": 4.767e-05,
        "meta_mean_motion_ddot": 0,
        "tle_line1": "1 66659U 25274K   25340.50658021  .00004767  00000+0  46618-3 0  9994",
        "tle_line2": "2 66659  97.7393 267.8254 0012286 304.1059  55.8994 14.92755789  1476"
      },
      "geometry": {
        "type": "Point",
        "coordinates": [
          -82.66152798780419,
          -48.355166936853315
        ]
      }
    },
    {
      "type": "Feature",
      "properties": {
        "norad_id": 66660,
        "name": "K-HERO",
        "group": "last-30-days",
        "lat": -42.790527061587056,
        "lon": -84.22305518423161,
        "alt_km": 586.8124315704417,
        "timestamp": "2025-12-07T05:38:08.686099+00:00",
        "meta_object_name": "K-HERO",
        "meta_object_id": "2025-274L",
        "meta_epoch": "2025-12-06T12:08:03.554016",
        "meta_mean_motion": 14.92904179,
        "meta_eccentricity": 0.00129328,
        "meta_inclination": 97.7397,
        "meta_ra_of_asc_node": 267.8271,
        "meta_arg_of_pericenter": 304.6853,
        "meta_mean_anomaly": 55.3147,
        "meta_ephemeris_type": 0,
        "meta_classification_type": "U",
        "meta_norad_cat_id": 66660,
        "meta_element_set_no": 999,
        "meta_rev_at_epoch": 147,
        "meta_bstar": 0.00045617475,
        "meta_mean_motion_dot": 4.682e-05,
        "meta_mean_motion_ddot": 0,
        "tle_line1": "1 66660U 25274L   25340.50559669  .00004682  00000+0  45617-3 0  9998",
        "tle_line2": "2 66660  97.7397 267.8271 0012932 304.6853  55.3147 14.92904179  1470"
      },
      "geometry": {
        "type": "Point",
        "coordinates": [
          -84.22305518423161,
          -42.790527061587056
        ]
      }
    },
    {
      "type": "Feature",
      "properties": {
        "norad_id": 66661,
        "name": "SNUGLITE-III",
        "group": "last-30-days",
        "lat": -37.07627410662531,
        "lon": -85.55509997608745,
        "alt_km": 585.8855173906923,
        "timestamp": "2025-12-07T05:38:08.686111+00:00",
        "meta_object_name": "SNUGLITE-III",
        "meta_object_id": "2025-274M",
        "meta_epoch": "2025-12-06T12:06:36.508608",
        "meta_mean_motion": 14.93053395,
        "meta_eccentricity": 0.00135673,
        "meta_inclination": 97.7393,
        "meta_ra_of_asc_node": 267.8282,
        "meta_arg_of_pericenter": 305.7513,
        "meta_mean_anomaly": 54.2444,
        "meta_ephemeris_type": 0,
        "meta_classification_type": "U",
        "meta_norad_cat_id": 66661,
        "meta_element_set_no": 999,
        "meta_rev_at_epoch": 147,
        "meta_bstar": 0.00044921114,
        "meta_mean_motion_dot": 4.628e-05,
        "meta_mean_motion_ddot": 0,
        "tle_line1": "1 66661U 25274M   25340.50458922  .00004628  00000+0  44921-3 0  9996",
        "tle_line2": "2 66661  97.7393 267.8282 0013567 305.7513  54.2444 14.93053395  1473"
      },
      "geometry": {
        "type": "Point",
        "coordinates": [
          -85.55509997608745,
          -37.07627410662531
        ]
      }
    },
    {
      "type": "Feature",
      "properties": {
        "norad_id": 66662,
        "name": "2025-274N",
        "group": "last-30-days",
        "lat": -34.721858824448134,
        "lon": -86.04473821115752,
        "alt_km": 585.4997266501732,
        "timestamp": "2025-12-07T05:38:08.686120+00:00",
        "meta_object_name": "2025-274N",
        "meta_object_id": "2025-274N",
        "meta_epoch": "2025-12-06T05:39:59.423616",
        "meta_mean_motion": 14.93101008,
        "meta_eccentricity": 0.00140324,
        "meta_inclination": 97.7392,
        "meta_ra_of_asc_node": 267.565,
        "meta_arg_of_pericenter": 305.8521,
        "meta_mean_anomaly": 54.1395,
        "meta_ephemeris_type": 0,
        "meta_classification_type": "U",
        "meta_norad_cat_id": 66662,
        "meta_element_set_no": 999,
        "meta_rev_at_epoch": 143,
        "meta_bstar": 0.00031672786,
        "meta_mean_motion_dot": 3.25e-05,
        "meta_mean_motion_ddot": 0,
        "tle_line1": "1 66662U 25274N   25340.23610444  .00003250  00000+0  31673-3 0  9996",
        "tle_line2": "2 66662  97.7392 267.5650 0014032 305.8521  54.1395 14.93101008  1432"
      },
      "geometry": {
        "type": "Point",
        "coordinates": [
          -86.04473821115752,
          -34.721858824448134
        ]
      }
    }
  ]
}